{"type": "FeatureCollection", "features": [ {"type": "Feature", "properties": {"norad_id": 28659, "name": "DIRECTV 8", "group": "intelsat", "lat": -0.0008621138125237922, "lon": 25.388809896697733, "alt_km": 35791.47380479807, "timestamp": "2025-12-15T04:01:20.110421+00:00", "meta": {"OBJECT_NAME": "DIRECTV 8", "OBJECT_ID": "2005-019A", "EPOCH": "2025-12-14T06:00:17.565120", "MEAN_MOTION": 1.00272247, "ECCENTRICITY": 0.00029572, "INCLINATION": 0.0265, "RA_OF_ASC_NODE": 71.8481, "ARG_OF_PERICENTER": 197.2233, "MEAN_ANOMALY": 145.1306, "EPHEMERIS_TYPE": 0, "CLASSIFICATION_TYPE": "U", "NORAD_CAT_ID": 28659, "ELEMENT_SET_NO": 999, "REV_AT_EPOCH": 7521, "BSTAR": 0, "MEAN_MOTION_DOT": 1.9e-07, "MEAN_MOTION_DDOT": 0}, "tle": {"line1": "1 28659U 05019A   25348.25020330  .00000019  00000+0  00000+0 0  9990", "line2": "2 28659   0.0265  71.8481 0002957 197.2233 145.1306  1.00272247 75214"}}, "geometry": {"type": "Point", "coordinates": [25.388809896697733, -0.0008621138125237922]}}, {"type": "Feature", "properties": {"norad_id": 28702, "name": "GALAXY 28 (G-28)", "group": "intelsat", "lat": -1.1950792980839378, "lon": 55.7559551135423, "alt_km": 35796.57192654385, "timestamp": "2025-12-15T04:01:20.110434+00:00", "meta": {"OBJECT_NAME": "GALAXY 28 (G-28)", "OBJECT_ID": "2005-022A", "EPOCH": "2025-12-14T06:08:54.239712", "MEAN_MOTION": 1.00271507, "ECCENTRICITY": 0.00028299, "INCLINATION": 2.8228, "RA_OF_ASC_NODE": 81.2646, "ARG_OF_PERICENTER": 186.1531, "MEAN_ANOMALY": 179.2969, "EPHEMERIS_TYPE": 0, "CLASSIFICATION_TYPE": "U", "NORAD_CAT_ID": 28702, "ELEMENT_SET_NO": 999, "REV_AT_EPOCH": 5012, "BSTAR": 0, "MEAN_MOTION_DOT": -1.7e-06, "MEAN_MOTION_DDOT": 0}, "tle": {"line1": "1 28702U 05022A   25348.25618333 -.00000170  00000+0  00000+0 0  9998", "line2": "2 28702   2.8228  81.2646 0002829 186.1531 179.2969  1.00271507 50120"}}, "geometry": {"type": "Point", "coordinates": [55.7559551135423, -1.1950792980839378]}}, {"type": "Feature", "properties": {"norad_id": 29236, "name": "GALAXY 16 (G-16)", "group": "intelsat", "lat": 0.00581519323952846, "lon": 45.416459636820875, "alt_km": 35793.844665246215, "timestamp": "2025-12-15T04:01:20.110446+00:00", "meta": {"OBJECT_NAME": "GALAXY 16 (G-16)", "OBJECT_ID": "2006-023A", "EPOCH": "2025-12-14T06:06:02.015136", "MEAN_MOTION": 1.00272443, "ECCENTRICITY": 0.00024463, "INCLINATION": 0.0414, "RA_OF_ASC_NODE": 144.9049, "ARG_OF_PERICENTER": 120.6411, "MEAN_ANOMALY": 170.1349, "EPHEMERIS_TYPE": 0, "CLASSIFICATION_TYPE": "U", "NORAD_CAT_ID": 29236, "ELEMENT_SET_NO": 999, "REV_AT_EPOCH": 7111, "BSTAR": 0, "MEAN_MOTION_DOT": -1.09e-06, "MEAN_MOTION_DDOT": 0}, "tle": {"line1": "1 29236U 06023A   25348.25418999 -.00000109  00000+0  00000+0 0  9991", "line2": "2 29236   0.0414 144.9049 0002446 120.6411 170.1349  1.00272443 71113"}}, "geometry": {"type": "Point", "coordinates": [45.416459636820875, 0.00581519323952846]}}, {"type": "Feature", "properties": {"norad_id": 29494, "name": "DIRECTV 9S", "group": "intelsat", "lat": -1.2297663790734865, "lon": 43.22926606742335, "alt_km": 35795.1094185501, "timestamp": "2025-12-15T04:01:20.110458+00:00", "meta": {"OBJECT_NAME": "DIRECTV 9S", "OBJECT_ID": "2006-043A", "EPOCH": "2025-12-14T07:45:38.704032", "MEAN_MOTION": 1.00271952, "ECCENTRICITY": 0.00029162, "INCLINATION": 1.9443, "RA_OF_ASC_NODE": 83.1953, "ARG_OF_PERICENTER": 183.971, "MEAN_ANOMALY": 191.2766, "EPHEMERIS_TYPE": 0, "CLASSIFICATION_TYPE": "U", "NORAD_CAT_ID": 29494, "ELEMENT_SET_NO": 999, "REV_AT_EPOCH": 4953, "BSTAR": 0, "MEAN_MOTION_DOT": -9.6e-07, "MEAN_MOTION_DDOT": 0}, "tle": {"line1": "1 29494U 06043A   25348.32336463 -.00000096  00000+0  00000+0 0  9997", "line2": "2 29494   1.9443  83.1953 0002916 183.9710 191.2766  1.00271952 49537"}}, "geometry": {"type": "Point", "coordinates": [43.22926606742335, -1.2297663790734865]}}, {"type": "Feature", "properties": {"norad_id": 31307, "name": "GALAXY 17 (G-17)", "group": "intelsat", "lat": -0.9496316624447727, "lon": 59.45414813218317, "alt_km": 35809.986656264125, "timestamp": "2025-12-15T04:01:20.110470+00:00", "meta": {"OBJECT_NAME": "GALAXY 17 (G-17)", "OBJECT_ID": "2007-016B", "EPOCH": "2025-12-14T06:09:54.145152", "MEAN_MOTION": 1.00272374, "ECCENTRICITY": 0.0005704, "INCLINATION": 2.504, "RA_OF_ASC_NODE": 82.2687, "ARG_OF_PERICENTER": 165.7002, "MEAN_ANOMALY": 202.7064, "EPHEMERIS_TYPE": 0, "CLASSIFICATION_TYPE": "U", "NORAD_CAT_ID": 31307, "ELEMENT_SET_NO": 999, "REV_AT_EPOCH": 6795, "BSTAR": 0, "MEAN_MOTION_DOT": -1.89e-06, "MEAN_MOTION_DDOT": 0}, "tle": {"line1": "1 31307U 07016B   25348.25687668 -.00000189  00000+0  00000+0 0  9995", "line2": "2 31307   2.5040  82.2687 0005704 165.7002 202.7064  1.00272374 67951"}}, "geometry": {"type": "Point", "coordinates": [59.45414813218317, -0.9496316624447727]}}, {"type": "Feature", "properties": {"norad_id": 31862, "name": "DIRECTV 10", "group": "intelsat", "lat": -0.0016976560822853331, "lon": 41.5956133323337, "alt_km": 35787.53099307631, "timestamp": "2025-12-15T04:01:20.110482+00:00", "meta": {"OBJECT_NAME": "DIRECTV 10", "OBJECT_ID": "2007-032A", "EPOCH": "2025-12-14T07:45:38.704032", "MEAN_MOTION": 1.0026671, "ECCENTRICITY": 2.184e-05, "INCLINATION": 0.0031, "RA_OF_ASC_NODE": 235.7544, "ARG_OF_PERICENTER": 75.044, "MEAN_ANOMALY": 146.0659, "EPHEMERIS_TYPE": 0, "CLASSIFICATION_TYPE": "U", "NORAD_CAT_ID": 31862, "ELEMENT_SET_NO": 999, "REV_AT_EPOCH": 4374, "BSTAR": 0, "MEAN_MOTION_DOT": -8.4e-07, "MEAN_MOTION_DDOT": 0}, "tle": {"line1": "1 31862U 07032A   25348.32336463 -.00000084  00000+0  00000+0 0  9995", "line2": "2 31862   0.0031 235.7544 0000218  75.0440 146.0659  1.00266710 43749"}}, "geometry": {"type": "Point", "coordinates": [41.5956133323337, -0.0016976560822853331]}}, {"type": "Feature", "properties": {"norad_id": 32253, "name": "INTELSAT 11 (IS-11)", "group": "intelsat", "lat": -3.0450729904067226, "lon": -0.5006416388368915, "alt_km": 36146.4354541095, "timestamp": "2025-12-15T04:01:20.110494+00:00", "meta": {"OBJECT_NAME": "INTELSAT 11 (IS-11)", "OBJECT_ID": "2007-044B", "EPOCH": "2025-12-14T05:54:03.162816", "MEAN_MOTION": 0.99049597, "ECCENTRICITY": 0.00087663, "INCLINATION": 3.0842, "RA_OF_ASC_NODE": 80.9604, "ARG_OF_PERICENTER": 166.5539, "MEAN_ANOMALY": 143.2111, "EPHEMERIS_TYPE": 0, "CLASSIFICATION_TYPE": "U", "NORAD_CAT_ID": 32253, "ELEMENT_SET_NO": 999, "REV_AT_EPOCH": 6661, "BSTAR": 0, "MEAN_MOTION_DOT": 7e-07, "MEAN_MOTION_DDOT": 0}, "tle": {"line1": "1 32253U 07044B   25348.24586994  .00000070  00000+0  00000+0 0  9994", "line2": "2 32253   3.0842  80.9604 0008766 166.5539 143.2111  0.99049597 66617"}}, "geometry": {"type": "Point", "coordinates": [-0.5006416388368915, -3.0450729904067226]}}, {"type": "Feature", "properties": {"norad_id": 32388, "name": "HORIZONS-2", "group": "intelsat", "lat": -0.43164344959618683, "lon": 70.6123952056788, "alt_km": 35805.5867664848, "timestamp": "2025-12-15T04:01:20.110506+00:00", "meta": {"OBJECT_NAME": "HORIZONS-2", "OBJECT_ID": "2007-063B", "EPOCH": "2025-12-14T04:30:26.171424", "MEAN_MOTION": 1.00269526, "ECCENTRICITY": 0.00048318, "INCLINATION": 2.1253, "RA_OF_ASC_NODE": 82.9462, "ARG_OF_PERICENTER": 191.4869, "MEAN_ANOMALY": 162.4752, "EPHEMERIS_TYPE": 0, "CLASSIFICATION_TYPE": "U", "NORAD_CAT_ID": 32388, "ELEMENT_SET_NO": 999, "REV_AT_EPOCH": 6595, "BSTAR": 0, "MEAN_MOTION_DOT": -2.36e-06, "MEAN_MOTION_DDOT": 0}, "tle": {"line1": "1 32388U 07063B   25348.18780291 -.00000236  00000+0  00000+0 0  9998", "line2": "2 32388   2.1253  82.9462 0004831 191.4869 162.4752  1.00269526 65957"}}, "geometry": {"type": "Point", "coordinates": [70.6123952056788, -0.43164344959618683]}}, {"type": "Feature", "properties": {"norad_id": 32729, "name": "DIRECTV 11", "group": "intelsat", "lat": 0.015152210824149937, "lon": 45.20869148557219, "alt_km": 35787.11392474472, "timestamp": "2025-12-15T04:01:20.110518+00:00", "meta": {"OBJECT_NAME": "DIRECTV 11", "OBJECT_ID": "2008-013A", "EPOCH": "2025-12-14T06:05:54.526848", "MEAN_MOTION": 1.00271695, "ECCENTRICITY": 3.514e-05, "INCLINATION": 0.0409, "RA_OF_ASC_NODE": 171.7906, "ARG_OF_PERICENTER": 5.3451, "MEAN_ANOMALY": 258.3297, "EPHEMERIS_TYPE": 0, "CLASSIFICATION_TYPE": "U", "NORAD_CAT_ID": 32729, "ELEMENT_SET_NO": 999, "REV_AT_EPOCH": 4373, "BSTAR": 0, "MEAN_MOTION_DOT": -1.08e-06, "MEAN_MOTION_DDOT": 0}, "tle": {"line1": "1 32729U 08013A   25348.25410332 -.00000108  00000+0  00000+0 0  9995", "line2": "2 32729   0.0409 171.7906 0000351   5.3451 258.3297  1.00271695 43730"}}, "geometry": {"type": "Point", "coordinates": [45.20869148557219, 0.015152210824149937]}}, {"type": "Feature", "properties": {"norad_id": 32951, "name": "GALAXY 18 (G-18)", "group": "intelsat", "lat": 0.02526043192625453, "lon": 21.407456236834356, "alt_km": 35790.665495674555, "timestamp": "2025-12-15T04:01:20.110530+00:00", "meta": {"OBJECT_NAME": "GALAXY 18 (G-18)", "OBJECT_ID": "2008-024A", "EPOCH": "2025-12-14T05:09:09.326592", "MEAN_MOTION": 1.00270892, "ECCENTRICITY": 0.00028568, "INCLINATION": 0.0216, "RA_OF_ASC_NODE": 351.0827, "ARG_OF_PERICENTER": 279.093, "MEAN_ANOMALY": 127.2301, "EPHEMERIS_TYPE": 0, "CLASSIFICATION_TYPE": "U", "NORAD_CAT_ID": 32951, "ELEMENT_SET_NO": 999, "REV_AT_EPOCH": 4399, "BSTAR": 0, "MEAN_MOTION_DOT": 0, "MEAN_MOTION_DDOT": 0}, "tle": {"line1": "1 32951U 08024A   25348.21469128  .00000000  00000+0  00000+0 0  9997", "line2": "2 32951   0.0216 351.0827 0002856 279.0930 127.2301  1.00270892 43998"}}, "geometry": {"type": "Point", "coordinates": [21.407456236834356, 0.02526043192625453]}}]}